NORAD_CAT_ID,OBJECT_NAME,OBJECT_TYPE,EPOCH,MEAN_MOTION,ECCENTRICITY,INCLINATION,RA_OF_ASC_NODE,ARG_OF_PERICENTER,MEAN_ANOMALY,BSTAR,MEAN_MOTION_DOT,MEAN_MOTION_DDOT,TLE_LINE0,TLE_LINE1,TLE_LINE2,SEMIMAJOR_AXIS,PERIOD,APOGEE,PERIGEE,DECAYED
54207.0,STARLINK-5262,PAYLOAD,2024-08-13 12:22:48,15.08831945,0.0001877,53.2134,46.8033,107.3329,252.7869,0.00011494,1.541e-05,0.0,0 STARLINK-5262,1 54207U 22141BC  24226.51584143  .00001541  00000-0  11494-3 0  9998,2 54207  53.2134  46.8033 0001877 107.3329 252.7869 15.08831945 99708,6917.905,95.438,541.069,538.472,0.0
54207.0,STARLINK-5262,PAYLOAD,2024-08-13 18:44:24,15.08800808,0.0002156,53.2134,45.6194,79.9474,280.1761,-0.00026616,-4.517e-05,0.0,0 STARLINK-5262,1 54207U 22141BC  24226.78083533 -.00004517  00000-0 -26616-3 0  9994,2 54207  53.2134  45.6194 0002156  79.9474 280.1761 15.08800808 99743,6918.0,95.44,541.357,538.374,0.0
54207.0,STARLINK-5262,PAYLOAD,2024-08-13 21:55:09,15.08802317,0.0001525,53.2201,45.0216,85.4438,274.6728,-0.00047615,-7.85e-05,0.0,0 STARLINK-5262,1 54207U 22141BC  24226.91330352 -.00007850  00000-0 -47615-3 0  9998,2 54207  53.2201  45.0216 0001525  85.4438 274.6728 15.08802317 99533,6917.996,95.44,540.916,538.806,0.0
54207.0,STARLINK-5262,PAYLOAD,2024-08-14 12:13:37,15.0881821,0.000131,53.2198,42.3506,53.7667,306.3446,-8.2088e-05,-1.593e-05,0.0,0 STARLINK-5262,1 54207U 22141BC  24227.50946314 -.00001593  00000-0 -82088-4 0  9997,2 54207  53.2198  42.3506 0001310  53.7667 306.3446 15.08818210 99858,6917.947,95.439,540.718,538.906,0.0
54207.0,STARLINK-5262,PAYLOAD,2024-08-14 18:35:08,15.08844771,0.000128,53.2164,41.1572,72.022,288.0912,0.00014138,1.963e-05,0.0,0 STARLINK-5262,1 54207U 22141BC  24227.77440615  .00001963  00000-0  14138-3 0  9998,2 54207  53.2164  41.1572 0001280  72.0220 288.0912 15.08844771 99895,6917.866,95.437,540.616,538.845,0.0
54207.0,STARLINK-5262,PAYLOAD,2024-08-15 04:07:26,15.08861892,0.0001153,53.2185,39.3742,71.2563,288.8555,0.00011001,1.464e-05,0.0,0 STARLINK-5262,1 54207U 22141BC  24228.17183411  .00001464  00000-0  11001-3 0  9993,2 54207  53.2185  39.3742 0001153  71.2563 288.8555 15.08861892 99957,6917.813,95.436,540.476,538.881,0.0
54207.0,STARLINK-5262,PAYLOAD,2024-08-15 18:25:56,15.088219,0.0001413,53.2199,36.6979,62.9849,297.1287,0.00035872,5.423e-05,0.0,0 STARLINK-5262,1 54207U 22141BC  24228.76801632  .00005423  00000-0  35872-3 0  9991,2 54207  53.2199  36.6979 0001413  62.9849 297.1287 15.08821900100041,6917.936,95.439,540.778,538.823,0.0
54207.0,STARLINK-5262,PAYLOAD,2024-08-16 03:58:14,15.08841814,0.000231,53.2192,34.9129,74.2811,285.8436,0.00044615,6.82e-05,0.0,0 STARLINK-5262,1 54207U 22141BC  24229.16544467  .00006820  00000-0  44615-3 0  9993,2 54207  53.2192  34.9129 0002310  74.2811 285.8436 15.08841814100107,6917.875,95.437,541.338,538.142,0.0
54207.0,STARLINK-5262,PAYLOAD,2024-08-16 19:52:07,15.08838831,0.0002105,53.2191,31.9406,73.9778,286.1446,-8.138e-05,-1.583e-05,0.0,0 STARLINK-5262,1 54207U 22141BC  24229.82785950 -.00001583  00000-0 -81380-4 0  9994,2 54207  53.2191  31.9406 0002105  73.9778 286.1446 15.08838831100202,6917.884,95.438,541.205,538.293,0.0
54207.0,STARLINK-5262,PAYLOAD,2024-08-17 19:42:53,15.08836596,0.0001621,53.2182,27.4791,80.4962,279.6214,2.9388e-05,1.8e-06,0.0,0 STARLINK-5262,1 54207U 22141BC  24230.82145598  .00000180  00000-0  29388-4 0  9994,2 54207  53.2182  27.4791 0001621  80.4962 279.6214 15.08836596100126,6917.891,95.438,540.877,538.634,0.0
54207.0,STARLINK-5262,PAYLOAD,2024-08-18 10:01:21,15.0884018,0.0001128,53.2185,24.8026,83.9436,276.1685,3.9042e-05,3.34e-06,0.0,0 STARLINK-5262,1 54207U 22141BC  24231.41761113  .00000334  00000-0  39042-4 0  9996,2 54207  53.2185  24.8026 0001128  83.9436 276.1685 15.08840180100440,6917.88,95.438,540.525,538.965,0.0
54207.0,STARLINK-5262,PAYLOAD,2024-08-18 17:58:16,15.0884322,0.0001068,53.2189,23.3176,79.2049,280.9063,0.00019222,2.773e-05,0.0,0 STARLINK-5262,1 54207U 22141BC  24231.74880366  .00002773  00000-0  19222-3 0  9990,2 54207  53.2189  23.3176 0001068  79.2049 280.9063 15.08843220100491,6917.871,95.437,540.474,538.997,0.0
54207.0,STARLINK-5262,PAYLOAD,2024-08-19 09:52:08,15.08833126,0.0001227,53.2183,20.3433,94.1886,265.9246,4.5983e-05,4.44e-06,0.0,0 STARLINK-5262,1 54207U 22141BC  24232.41121472  .00000444  00000-0  45983-4 0  9998,2 54207  53.2183  20.3433 0001227  94.1886 265.9246 15.08833126100591,6917.901,95.438,540.615,538.918,0.0
54207.0,STARLINK-5262,PAYLOAD,2024-08-20 12:53:41,15.08847375,0.0001624,53.2176,15.2811,138.56,221.5516,3.0763e-05,2.02e-06,0.0,0 STARLINK-5262,1 54207U 22141BC  24233.53728466  .00000202  00000-0  30763-4 0  9990,2 54207  53.2176  15.2811 0001624 138.5600 221.5516 15.08847375100762,6917.858,95.437,540.846,538.599,0.0
54207.0,STARLINK-5262,PAYLOAD,2024-08-21 12:44:29,15.08836079,0.0001307,53.2195,10.8197,136.4296,223.68,0.00020227,2.932e-05,0.0,0 STARLINK-5262,1 54207U 22141BC  24234.53089146  .00002932  00000-0  20227-3 0  9991,2 54207  53.2195  10.8197 0001307 136.4296 223.6800 15.08836079100912,6917.892,95.438,540.662,538.853,0.0
54207.0,STARLINK-5262,PAYLOAD,2024-08-21 14:19:52,15.08832234,0.0001488,53.2185,10.5239,128.2898,231.8228,0.00023858,3.51e-05,0.0,0 STARLINK-5262,1 54207U 22141BC  24234.59713401  .00003510  00000-0  23858-3 0  9991,2 54207  53.2185  10.5239 0001488 128.2898 231.8228 15.08832234100691,6917.904,95.438,540.799,538.74,0.0
